[{"OBJECT_NAME":"NORSAT 3","OBJECT_ID":"2021-034E","EPOCH":"2026-03-09T22:23:32.431200","MEAN_MOTION":15.04338407,"ECCENTRICITY":0.0005858,"INCLINATION":97.5427,"RA_OF_ASC_NODE":128.5959,"ARG_OF_PERICENTER":280.8366,"MEAN_ANOMALY":79.2201,"EPHEMERIS_TYPE":0,"CLASSIFICATION_TYPE":"U","NORAD_CAT_ID":48272,"ELEMENT_SET_NO":999,"REV_AT_EPOCH":26491,"BSTAR":0.00030361478,"MEAN_MOTION_DOT":4.174e-5,"MEAN_MOTION_DDOT":0},{"OBJECT_NAME":"STARLINK-5945","OBJECT_ID":"2023-042AJ","EPOCH":"2026-03-08T07:54:44.593920","MEAN_MOTION":15.02709363,"ECCENTRICITY":0.00016068,"INCLINATION":43.005,"RA_OF_ASC_NODE":50.6711,"ARG_OF_PERICENTER":226.2278,"MEAN_ANOMALY":133.8432,"EPHEMERIS_TYPE":0,"CLASSIFICATION_TYPE":"U","NORAD_CAT_ID":56018,"ELEMENT_SET_NO":999,"REV_AT_EPOCH":16285,"BSTAR":0.0016951531,"MEAN_MOTION_DOT":0.00022875,"MEAN_MOTION_DDOT":0}]
